AIR_CONDITIONING_TYPE,BARRIER_FREE_ACCESSIBILTY_ENTR,CONFIRMED_STOREYS,CONFIRMED_UNITS,PROP_MANAGEMENT_COMPANY_NAME,PROPERTY_TYPE,RSN,WARD,YEAR_REGISTERED_2,YEAR_BUILT_2,WARDNAME,SITE_ADDRESS_2,LATITUDE,LONGITUDE,X,Y
CENTRAL AIR,YES,"8","79",GREENWIN INC.,PRIVATE,"4236708","15","2017","2016",Don Valley West,77 KEEWATIN AVE,,,"313138.717","4841192.59"
CENTRAL AIR,YES,"30","342",SHIPLAKE PROPERTIES LTD.,PRIVATE,"4244920","12","2017","2017",Toronto-St. Paul's,118 BALLIOL ST,,,"313430.374","4839608.751"
CENTRAL AIR,NO,"14","66",HOLLY-SOUDAN VENTURES INC.,PRIVATE,"4233372","12","2017","1975",Toronto-St. Paul's,40 SOUDAN AVE,"43.7049414095","-79.3965572814","313121.445","4840336.79"
CENTRAL AIR,YES,"35","315",K&G APARTMENT HOLDINGS INC,PRIVATE,"4915493","15","2021","2020",Don Valley West,18 ERSKINE AVE,,,"312961.435","4841057.89"
CENTRAL AIR,YES,"14","291",MEDALLION CORPORATION,PRIVATE,"4155730","09","2017","2010",Davenport,45 LISGAR ST,,,"311015.908","4833355.956"
CENTRAL AIR,NO,"6","10",PINEDALE PROPERTIES,PRIVATE,"4153368","12","2017","1960",Toronto-St. Paul's,77 CLARENDON AVE,"43.682364474","-79.406036401","312360.039","4837828.542"
CENTRAL AIR,YES,"9","91",O'SHANTER DEVELPOMENT COMPANY LTD.,PRIVATE,"4153948","08","2017","1963",Eglinton-Lawrence,625 ROSELAWN AVE,"43.705666038","-79.422923285","310996.166","4840415.915"
CENTRAL AIR,YES,"10","42",MYRMEX NON-PROFIT HOUSING,SOCIAL HOUSING,"4153455","13","2018","1991",Toronto Centre,177 MUTUAL ST,"43.6595590254","-79.3765361369","314742.506","4835297.128"
CENTRAL AIR,YES,"23","375",WJ PROPERTIES,PRIVATE,"4153476","13","2017","1973",Toronto Centre,140 CARLTON ST,"43.66315507","-79.375194012","314849.888","4835697.742"
CENTRAL AIR,NO,"32","163",YONGE PLEASANT HOLDINGS LTD.,PRIVATE,"4153746","12","2017","1969",Toronto-St. Paul's,40 PLEASANT BLVD,"43.6875941833","-79.3924335004","313456.285","4838409.917"
CENTRAL AIR,NO,"13","59",JERUDAN DEVELOPMENTS LIMITED,PRIVATE,"4153881","12","2017","1967",Toronto-St. Paul's,4 DEER PARK CRES,"43.6878705594","-79.3990127319","312925.863","4838439.962"
CENTRAL AIR,YES,"4","20",WIGWAMEN INCORPORATED,SOCIAL HOUSING,"4480446","20","2019","2016",Scarborough Southwest,55 THORA AVE,"43.691279311","-79.286865733","321965.595","4838836.621"
CENTRAL AIR,YES,"24","246",BENTALLGREENOAK RESIDENTIAL SERVICE,PRIVATE,"5035608","10","2022","2021",Spadina-Fort York,11 ORDNANCE ST,"43.638981358","-79.409542284","312072.004","4833031.099"
CENTRAL AIR,YES,"25","264",GWLRA RESIDENTIAL,PRIVATE,"5144479","04","2022","2020",Parkdale-High Park,55 QUEBEC AVE,,,"307442.641","4834735.62"
CENTRAL AIR,YES,"9","210",RHAPSODY PROPERTY MANAGEMENT SERVICES,PRIVATE,"5239236","11",,,,,,,,
CENTRAL AIR,YES,"36","286",TRICON RESIDENTIAL,PRIVATE,"5175953","10","2022","2022",Spadina-Fort York,57 SPADINA AVE,"43.644956232","-79.394471437","313302.359","4833678.686"
CENTRAL AIR,YES,"17","146",R A B PROPERTIES LIMITED,PRIVATE,"4594874","24","2019","2019",Scarborough-Guildwood,40 MEADOWGLEN PL,,,"326505.793","4848140.502"
CENTRAL AIR,YES,"8","55",STERLING KARAMAR PROPERTY MANAGEMENT,PRIVATE,"4255628","11","2017","2007",University-Rosedale,50 SPADINA RD,"43.669438916","-79.405207226","312424.263","4836380.481"
CENTRAL AIR,NO,"3","14",HOUSELINK COMMUNITY HOMES,SOCIAL HOUSING,"4253010","09","2017","2007",Davenport,46 DELAWARE AVE,"43.6555781953","-79.4261372722","310742.296","4834850.132"
CENTRAL AIR,NO,"8","74",CAPREIT,PRIVATE,"4245676","12","2017","1967",Toronto-St. Paul's,321 CHAPLIN CRES,"43.7023575152","-79.4173230681","311448.141","4840047.833"
CENTRAL AIR,YES,"3","24",ECUHOME CORPORATION,SOCIAL HOUSING,"4155686","08","2017","2003",Eglinton-Lawrence,651 LAWRENCE AVE W,"43.7161036194","-79.4429013897","309385.499","4841573.16"
CENTRAL AIR,NO,"3","10",MAINSTAY HOUSING,SOCIAL HOUSING,"4154687","06","2017","1950",York Centre,4085 BATHURST ST,"43.7447105707","-79.4354450198","309983.913","4844751.684"
CENTRAL AIR,YES,"6","81",COMMUNITY FIRST DEVELOPMENTS INC,SOCIAL HOUSING,"4154715","18","2017","1996",Willowdale,33 DREWRY AVE,"43.78632826","-79.41887979","311313.334","4849377.413"
CENTRAL AIR,YES,"22","278",,PRIVATE,"4155779","03","2017","2007",Etobicoke-Lakeshore,11 DUNBLOOR RD,"43.643657419","-79.532835392","302143.383","4833527.263"
CENTRAL AIR,YES,"23","245",HOMESTEAD LAND HOLDINGS LIMITED,PRIVATE,"4153745","12","2017","1969",Toronto-St. Paul's,50 ROSEHILL AVE,"43.686997323","-79.391011464","313570.756","4838344.719"
CENTRAL AIR,YES,"43","595",GWLRA RESIDENTIAL,PRIVATE,"5132414","11","2022","2018",University-Rosedale,55 GERRARD ST W,"43.658443735","-79.383996717","314140.697","4835173.342"
CENTRAL AIR,YES,"18","190",ST. CLARE'S MULTIFAITH HOUSING SOCIETY,SOCIAL HOUSING,"4156598","09","2017","2011",Davenport,180 SUDBURY ST,,,"310822.114","4833330.761"
CENTRAL AIR,YES,"5","24",,SOCIAL HOUSING,"4155124","05","2017","1995",York South-Weston,1296 WESTON RD,"43.6890657377","-79.4960622799","305092.365","4838574.571"
CENTRAL AIR,YES,"9","184",MEDALLION CORPORATION,PRIVATE,"4156723","05","2017","2008",York South-Weston,5 HARDING AVE,"43.699376402","-79.502250278","304602.821","4839714.337"
CENTRAL AIR,YES,"9","244",THE BROWN GROUP OF COMPANIES INC.,PRIVATE,"4154640","06","2017","1967",York Centre,605 FINCH AVE W,"43.771328418","-79.45270965","308591.503","4847708.85"
CENTRAL AIR,NO,"25","260",BRIARLANE RENTAL PROPERTY MANAGEMENT INC.,PRIVATE,"4153537","13","2017","1965",Toronto Centre,25 ST MARY ST,"43.6673389354","-79.3871538262","313884.939","4836160.227"
CENTRAL AIR,YES,"4","41",MAINSTAY HOUSING,SOCIAL HOUSING,"4153577","14","2017","1992",Toronto-Danforth,179 BROADVIEW AVE,"43.6611021065","-79.3502357937","316863.476","4835472.037"
CENTRAL AIR,YES,"5","77",YWCA,SOCIAL HOUSING,"4153628","14","2017","1988",Toronto-Danforth,15 PAPE AVE,"43.6594297929","-79.3361462421","318000.182","4835288.371"
CENTRAL AIR,YES,"14","152",19 EVA ROAD PROPERTY MANAGEMENT LTD.,PRIVATE,"4155388","02","2017","1974",Etobicoke Centre,19 EVA RD,"43.637506998","-79.56171027","299605.598","4833037.805"
CENTRAL AIR,YES,"4","12",TORONTO COMMUNITY HOUSING CORPORATION,TCHC,"4153215","11","2018","1989",University-Rosedale,25 MADISON AVE,"43.668341436","-79.402632539","312636.214","4836270.93"
CENTRAL AIR,YES,"17","95",CROMWELL MANAGEMENT INC.,PRIVATE,"4153873","12","2017","1965",Toronto-St. Paul's,9 DEER PARK CRES,"43.6881074516","-79.3979987112","313007.575","4838466.377"
CENTRAL AIR,YES,"4","22",WIGWAMEN CORPORATION,SOCIAL HOUSING,"4462209","20","2019","1953",Scarborough Southwest,3738 ST CLAIR AVE E,"43.7207918778","-79.2435210688","325449.765","4842124.271"
CENTRAL AIR,YES,"3","30",ST. JUDE COMMUNITY HOMES,SOCIAL HOUSING,"4286300","13","2018","2005",Toronto Centre,270 MILAN ST,"43.658372351","-79.367849536","315438.658","4835180.679"
CENTRAL AIR,YES,"25","264",GWLRA RESIDENTIAL,PRIVATE,"5144485","04","2022","2021",Parkdale-High Park,50 HIGH PARK AVE,"43.655497932","-79.466564069","307481.141","4834840.141"
CENTRAL AIR,YES,"6","82",AVI SCHMIDT,PRIVATE,"5186997","12",,"2019",Toronto-St. Paul's,200 MADISON AVE,"43.676442017","-79.406812986","312299.706","4837164.375"
CENTRAL AIR,YES,"26","440",RHAPSODY PROPERTY MANAGEMENT,PRIVATE,"5348106","10",,,,,,,,
CENTRAL AIR,YES,"10","177",,PRIVATE,"4264094","13","2017","2013",Toronto Centre,132 BERKELEY ST,"43.654807461","-79.365773301","315593.156","4834753.59"
CENTRAL AIR,YES,"10","210",GWLRA RESIDENTIAL,PRIVATE,"4937758","11","2021","1940",University-Rosedale,424 YONGE ST,"43.660295635","-79.383058424","314228.403","4835355.504"
CENTRAL AIR,NO,"33","293",MORGUARD CORPORATION,PRIVATE,"4244973","13","2017","2005",Toronto Centre,925 BAY ST,"43.66413332","-79.3866477012","313926.242","4835804.164"
CENTRAL AIR,YES,"8","95",,PRIVATE,"4242360","09","2017","2016",Davenport,1544 DUNDAS ST W,"43.650010077","-79.433231873","310163.177","4834237.074"
CENTRAL AIR,YES,"7","77",TORONTO COMMUNITY HOUSING CORPORATION,TCHC,"4520827","08","2019","2018",Eglinton-Lawrence,20 ZACHARY CRT,,,"308987.948","4842332.775"
CENTRAL AIR,YES,"28","216",QUADREAL PROPERTY GROUP,PRIVATE,"4156003","12","2017","1969",Toronto-St. Paul's,33 ROSEHILL AVE,"43.68644645","-79.39101627","313557.587","4838297.586"
CENTRAL AIR,NO,"16","156",PRINCESS MANAGEMENT,PRIVATE,"4155348","02","2017","1973",Etobicoke Centre,45 LA ROSE AVE,"43.6860920205","-79.5158718598","303504.825","4838237.733"
CENTRAL AIR,NO,"20","238",BRIARLANE RENTAL PROPERTY MANAGEMENT INC.,PRIVATE,"4156076","23","2017","1979",Scarborough North,1580 SANDHURST CRCL,"43.807671204","-79.271262134","323198.048","4851844.093"
CENTRAL AIR,YES,"7","128",AFFORDABLE PROPERTY MANAGEMENT,SOCIAL HOUSING,"4153382","10","2017","1997",Spadina-Fort York,85 THE ESPLANADE,"43.6473212947","-79.3729640747","315032.675","4833938.007"
CENTRAL AIR,YES,"11","210",MARQUESA APARTMENTS LIMITED,PRIVATE,"4153957","08","2017","1964",Eglinton-Lawrence,2121 BATHURST ST,"43.7039163389","-79.4253300731","310802.633","4840220.402"
CENTRAL AIR,NO,"37","285",WILSTAR MANAGEMENT LTD.,PRIVATE,"4155306","03","2017","1973",Etobicoke-Lakeshore,50 CORDOVA AVE,"43.647102911","-79.526466446","302648.878","4833907.435"
CENTRAL AIR,YES,"17","73",THE ELIA CORPORATION,PRIVATE,"4155327","02","2017","1966",Etobicoke Centre,289 THE KINGSWAY,"43.663190582","-79.519535276","303208.491","4835694.511"
CENTRAL AIR,YES,"11","112",WOODGREEN COMMUNITY HOUSING INC,SOCIAL HOUSING,"4155931","13","2017","2008",Toronto Centre,490 SHERBOURNE ST,"43.66759196","-79.375398711","314832.654","4836190.618"
CENTRAL AIR,YES,"10","174",DMS PROPERTY MANAGEMENT LTD.,SOCIAL HOUSING,"4155121","05","2017","1982",York South-Weston,15 OXFORD DR,"43.688879712","-79.491260721","305481.516","4838552.325"
CENTRAL AIR,NO,"17","81",WJ PROPERTIES,PRIVATE,"4154932","12","2017","1975",Toronto-St. Paul's,250 HEATH ST W,"43.6867124421","-79.4141955534","311701.948","4838309.941"
CENTRAL AIR,YES,"12","234",STERLING KARAMAR PROPERTY MANAGEMENT,PRIVATE,"4156323","17","2017","1971",Don Valley North,4001 BAYVIEW AVE,"43.8013167898","-79.3922896323","313197.147","4851099.932"
CENTRAL AIR,YES,"15","206",PARK PROPERTY MANAGEMENT INC,PRIVATE,"4152855","22","2017","1973",Scarborough-Agincourt,100 SPRUCEWOOD CRT,"43.7943401956","-79.3239937212","318948.686","4850278.35"
CENTRAL AIR,YES,"10","150",,SOCIAL HOUSING,"4156371","05","2017","1992",York South-Weston,10 MAPLE LEAF DR,"43.7095175414","-79.5048440536","304394.109","4840839.994"
CENTRAL AIR,NO,"3","30",7774001 CANADA INC.,SOCIAL HOUSING,"4156441","12","2017","2009",Toronto-St. Paul's,201 VAUGHAN RD,"43.6870772647","-79.4223633104","311043.417","4838349.831"
CENTRAL AIR,YES,"15","83",ROEHAMPTON TOWERS INC.,PRIVATE,"4153803","12","2017","1964",Toronto-St. Paul's,245 ROEHAMPTON AVE,"43.709160334","-79.391292239","313544.918","4840806.994"
CENTRAL AIR,YES,"15","171",WJ PROPERTIES.CA,PRIVATE,"4154534","08","2017","1974",Eglinton-Lawrence,125 NEPTUNE DR,"43.7308769994","-79.4396616962","309645.392","4843214.622"
CENTRAL AIR,YES,"10","141",VERTICA RESIDENT SERVICES,PRIVATE,"4156548","12","2017","2010",Toronto-St. Paul's,65 LILLIAN ST,"43.7061847","-79.393224881","313389.587","4840476.209"
CENTRAL AIR,YES,"22","332",KG GROUP,PRIVATE,"4156614","18","2017","2010",Willowdale,105 HARRISON GARDEN BLVD,"43.757534101","-79.404979514",,
CENTRAL AIR,YES,"14","166",AHMADIYYA ABODE OF PEACE,SOCIAL HOUSING,"4154251","07","2018","1993",Humber River-Black Creek,3001 FINCH AVE W,"43.747070571","-79.562597925","299742.782","4845014.81"
CENTRAL AIR,YES,"21","438",QUADREAL RESIDENTIAL PROPERTIES G.P. INC.,PRIVATE,"4154753","18","2017","1985",Willowdale,77 FINCH AVE E,"43.7801894874","-79.4110962225","311940.809","4848695.08"
CENTRAL AIR,YES,"17","228",PARK PROPERTY MANAGEMENT INC.,PRIVATE,"4155889","02","2017","1974",Etobicoke Centre,73 WIDDICOMBE HILL BLVD,"43.677126322","-79.556808045","300130.803","4837178.874"
CENTRAL AIR,YES,"23","364",,PRIVATE,"4154322","05","2017","1984",York South-Weston,15 MARTHA EATON WAY,"43.696553917","-79.488464036","305714.067","4839400.786"
CENTRAL AIR,YES,"4","108",,SOCIAL HOUSING,"4155351","02","2017","1995",Etobicoke Centre,1447 ROYAL YORK RD,"43.6865275325","-79.5276550192","302554.883","4838286.392"
CENTRAL AIR,YES,"6","32",WOODGREEN COMMUNITY HOUSING INC.,SOCIAL HOUSING,"4155750","14","2017","2004",Toronto-Danforth,243 COSBURN AVE,"43.690476097","-79.342379981","317490.612","4838737.441"
CENTRAL AIR,NO,"9","103",WINZEN CORPORATION,PRIVATE,"4155410","02","2017","1962",Etobicoke Centre,416 THE WESTWAY,"43.6840527547","-79.565694704","299487.999","4838013.037"
CENTRAL AIR,NO,"20","238",BRIARLANE RENTAL PROPERTY MANAGEMENT INC.,PRIVATE,"4156342","23","2017","1979",Scarborough North,1600 SANDHURST CRCL,"43.807552003","-79.272681054","323231.122","4851727.639"
CENTRAL AIR,YES,"19","225",PINEDALE PROPERTIES LTD,PRIVATE,"4154519","08","2017","1974",Eglinton-Lawrence,3636 BATHURST ST,"43.732436835","-79.433531915","310167.468","4843398.065"
CENTRAL AIR,YES,"3","15",DEL MANAGEMENT,TCHC,"4156556","24","2018","1970",Scarborough-Guildwood,3943 LAWRENCE AVE E,"43.7631593909","-79.2047559","328556.497","4846841.376"
CENTRAL AIR,YES,"17","148",,PRIVATE,"4153815","12","2017","1965",Toronto-St. Paul's,177 REDPATH AVE,"43.709723233","-79.393094085","313399.624","4840869.343"
CENTRAL AIR,YES,"8","72",WESTDALE PROPERTIES,PRIVATE,"4167679","15","2017","2008",Don Valley West,220 REDPATH AVE,"43.71127211","-79.394418315","313305.716","4840999.4"
CENTRAL AIR,YES,"13","156",,PRIVATE,"4154230","07","2017","1971",Humber River-Black Creek,2850 JANE ST,"43.750094613","-79.516913628","303422.212","4845348.952"
CENTRAL AIR,YES,"11","243",,SOCIAL HOUSING,"4152654","21","2017","1993",Scarborough Centre,2155 LAWRENCE AVE E,"43.7470832962","-79.2854390765","322064.815","4845035.55"
CENTRAL AIR,NO,"36","540",WILSTAR MANAGEMENT LTD.,PRIVATE,"4155303","03","2017","1973",Etobicoke-Lakeshore,24 MABELLE AVE,"43.6465857177","-79.5271471882","302594.209","4833849.039"
CENTRAL AIR,YES,"11","164",GREENWIN INC.,SOCIAL HOUSING,"4154608","06","2017","1989",York Centre,4300 BATHURST ST,"43.7528909884","-79.4382283415","309759.09","4845660.325"
CENTRAL AIR,YES,"15","141",H & R PROPERTY MANAGEMENT LTD,PRIVATE,"4155342","02","2017","1973",Etobicoke Centre,25 RICHVIEW RD,"43.6846591865","-79.5139674087","303658.33","4838078.525"
CENTRAL AIR,YES,"13","162",H&R PROPERTY MANAGEMENT,PRIVATE,"4155344","02","2017","1964",Etobicoke Centre,1407 ROYAL YORK RD,"43.6837870806","-79.5263097197","302663.23","4837981.902"
CENTRAL AIR,YES,"18","252",PARK PROPERTY MANAGEMENT INC,PRIVATE,"4152865","22","2017","1974",Scarborough-Agincourt,3050 PHARMACY AVE,"43.7955806314","-79.3274423479","318670.875","4850415.581"
CENTRAL AIR,YES,"8","133",GREENWIN INC,SOCIAL HOUSING,"4154484","08","2017","1992",Eglinton-Lawrence,525 LAWRENCE AVE W,"43.7186117701","-79.4314251429","310310.053","4841852.53"
CENTRAL AIR,YES,"4","68",YWCA TORONTO,SOCIAL HOUSING,"4269261","01","2018","2007",Etobicoke North,68 BERGAMOT AVE,"43.716943462","-79.557813582","300125.675","4841667.635"
CENTRAL AIR,YES,"30","251",MORGUARD CORP. ,PRIVATE,"4244932","12","2017","2015",Toronto-St. Paul's,310 TWEEDSMUIR AVE,"43.6853118353","-79.4144239839","311683.683","4838154.312"
CENTRAL AIR,YES,"14","157",MORGUARD CORPORATION,PRIVATE,"4242011","11","2017","1963",University-Rosedale,131 BLOOR ST W,"43.668753427","-79.392394273","313461.835","4836317.74"
CENTRAL AIR,YES,"29","346",DANIELS GATEWAY RENTALS,PRIVATE,"5118732","13","2022","2021",Toronto Centre,25 NICHOLAS AVE,,,"316225.666","4835308.898"
CENTRAL AIR,YES,"7","146",THE BROWN GROUP OF COMPANIES INC,PRIVATE,"5228227","15",,,,,,,,
CENTRAL AIR,YES,"34","231",TRICON RESIDENTIAL,PRIVATE,"5300693","13",,,,,,,,
CENTRAL AIR,YES,"16","221",KG GROUP,PRIVATE,"4261706","15","2017","2015",Don Valley West,305 ROEHAMPTON AVE,"43.709676333","-79.388685206","313732.785","4840864.055"
CENTRAL AIR,NO,"26","284",PARK PROPERTY MANAGEMENT INC.,PRIVATE,"4264085","13","2017","1979",Toronto Centre,25 WOOD ST,"43.662243751","-79.381865281","314311.982","4835595.749"
CENTRAL AIR,YES,"8","200",DMS PROPERTY MANAGEMENT LTD.,SOCIAL HOUSING,"4168942","10","2017","1984",Spadina-Fort York,345 DUFFERIN ST,"43.6410875936","-79.4277040009","310617.306","4833240.167"
CENTRAL AIR,NO,"15","256",FIDELITY PROPERTY MANAGEMENT LIMITED,PRIVATE,"4153399","10","2017","1982",Spadina-Fort York,20 ST PATRICK ST,"43.6509721376","-79.3893617427","313709.312","4834341.702"
CENTRAL AIR,YES,"28","388",CONCERT REALTY SERVICES LTD.,PRIVATE,"4153423","13","2017","2005",Toronto Centre,167 CHURCH ST,"43.6544377686","-79.3759611563","314805.505","4834950.321"
CENTRAL AIR,YES,"32","147",AZURIA GROUP INCORPORATED,PRIVATE,"4153517","11","2017","1981",University-Rosedale,55 CHARLES ST W,"43.6676849352","-79.3890195894","313734.416","4836198.46"
CENTRAL AIR,YES,"8","52",,SOCIAL HOUSING,"4153565","13","2017","2005",Toronto Centre,101 ONTARIO ST,"43.654589844","-79.366707521","315535.847","4834747.248"
CENTRAL AIR,YES,"4","29",THE SILVER BRUSH (TSB),SOCIAL HOUSING,"4153010","04","2017","2010",Parkdale-High Park,194 DOWLING AVE,"43.6397760709","-79.4400112258","309624.458","4833093.725"
CENTRAL AIR,YES,"8","134",COMMUNITY FIRST DEVELOPMENTS INC.,SOCIAL HOUSING,"4153093","09","2018","1995",Davenport,10 DORA AVE,"43.655979748","-79.443829191","309314.939","4834894.606"
CENTRAL AIR,YES,"19","149",VERTICA RESIDENT SERVICES,PRIVATE,"4153213","11","2017","1968",University-Rosedale,50 PRINCE ARTHUR AVE,"43.6694516489","-79.3986101072","312960.717","4836393.695"
CENTRAL AIR,NO,"4","45",IMPERRA GENERAL MANAGMENT,PRIVATE,"4153889","12","2017","1970",Toronto-St. Paul's,250 ST CLAIR AVE W,"43.6857216141","-79.4075167985","312240.538","4838200.444"
CENTRAL AIR,YES,"8","46",PENNYLANE PROPERTIES,PRIVATE,"4356202","04","2018","2017",Parkdale-High Park,36 SPENCER AVE,,,"310432.662","4832559.495"
CENTRAL AIR,YES,"18","501",MINTO PROPERTIES,PRIVATE,"4830483","10","2020","2019",Spadina-Fort York,39 NIAGARA ST,"43.641956672","-79.400830248","312766.443","4833331.455"
CENTRAL AIR,YES,"20","188",RHAPSODY PROPERTY MANAGEMENT SERVICES,PRIVATE,"4451371","17","2018","2017",Don Valley North,123 PARKWAY FOREST DR,,,"317528.543","4848086.948"
CENTRAL AIR,YES,"12","126",GREENWIN CORP.,SOCIAL HOUSING,"4333863","24","2018","1976",Scarborough-Guildwood,2877 A ELLESMERE RD,"43.780692143","-79.203193428","328559.122","4848999.52"
CENTRAL AIR,YES,"18","139",QUADREAL RESIDENTIAL PROPERTIES G.P. INC.,PRIVATE,"4293577","02","2018","1975",Etobicoke Centre,57 WIDDICOMBE HILL BLVD,"43.6779875128","-79.5535461519","300466.998","4837338.574"
CENTRAL AIR,YES,"12","145",WIGWAMEN INCORPORATED,SOCIAL HOUSING,"4288472","13","2018","2016",Toronto Centre,75 COOPERAGE ST,"43.653300151","-79.35672646","316341.205","4834605.327"
CENTRAL AIR,YES,"12","140",REALSTAR MANAGEMENT PARTNERSHIP,PRIVATE,"5294330","16",,,,,,,,
CENTRAL AIR,YES,"19","255",DEL MANAGMENT,TCHC,"4274218","03","2017","1962",Etobicoke-Lakeshore,57 MABELLE AVE,"43.646310516","-79.530501016","302329.86","4833829.218"
CENTRAL AIR,YES,"6","171",FIRM CAPITAL PROPERTIES INC,PRIVATE,"4255532","09","2017","2006",Davenport,1401 DUPONT ST,"43.666313356","-79.446687913","309068.351","4836043.153"
CENTRAL AIR,YES,"5","74",FIRM CAPITAL PROPERTIES INC,PRIVATE,"4255546","09","2017","2008",Davenport,1407 DUPONT ST,"43.666206649","-79.447567251","309012.691","4836030.543"
CENTRAL AIR,NO,"3","10",MAINSTAY HOUSING,SOCIAL HOUSING,"4250288","13","2017","1989",Toronto Centre,305-307 PARLIAMENT ST,,,"315626.782","4835245.653"
CENTRAL AIR,NO,"13","128",PRINCESS MANAGEMENT,PRIVATE,"4232592","02","2017","1971",Etobicoke Centre,53 WARRENDER AVE,"43.675270143","-79.553851772","300439.227","4837043.395"
CENTRAL AIR,YES,"14","179",SHIPLAKE PROPERTIES LTD.,PRIVATE,"4244917","12","2017","2017",Toronto-St. Paul's,99 DAVISVILLE AVE,,,"313417.998","4839660.997"
CENTRAL AIR,YES,"16","166",FITZROVIA REAL ESTATE INC,PRIVATE,"4915028","11","2021","2021",University-Rosedale,484 SPADINA AVE,"43.6582941155","-79.4007531385","312789.392","4835153.945"
CENTRAL AIR,NO,"7","105",PRINCESS MANAGEMENT,PRIVATE,"4155928","02","2017","1971",Etobicoke Centre,41 WARRENDER AVE,"43.676012059","-79.553552325","300469.801","4837116.899"
CENTRAL AIR,NO,"4","32",AMG APARTMENTS INC,PRIVATE,"4154324","05","2017","1961",York South-Weston,1809 LAWRENCE AVE W,"43.703038028","-79.501404509","304671.015","4840121.117"
CENTRAL AIR,YES,"4","16",CANADIAN HELEN KELLER CENTRE,SOCIAL HOUSING,"4154751","18","2017","1992",Willowdale,422 WILLOWDALE AVE,"43.7782172975","-79.4059349081","312356.512","4848476.407"
CENTRAL AIR,YES,"28","479",QUADREAL PROPERTY GROUP,PRIVATE,"4155820","11","2017","1979",University-Rosedale,235 BLOOR ST E,"43.6712768014","-79.3809034624","314388.383","4836598.4"
CENTRAL AIR,YES,"16","144",ST HILDAS TOWERS INC.,SOCIAL HOUSING,"4155026","12","2017","1997",Toronto-St. Paul's,2353 DUFFERIN ST,"43.6951962434","-79.4496138962","308845.969","4839250.13"
CENTRAL AIR,YES,"11","81",WESTDALE PROPERTIES,PRIVATE,"4153799","12","2017","1989",Toronto-St. Paul's,77 ROEHAMPTON AVE,"43.708135683","-79.396161299","313152.656","4840692.662"
CENTRAL AIR,YES,"8","44",REALSTAR MANAGEMENT PARTNERSHIP,PRIVATE,"4154893","16","2017","2001",Don Valley East,17 BROOKBANKS DR,"43.751291266","-79.332886312","318225.632","4845565.901"
CENTRAL AIR,NO,"24","183",COGIR MANAGEMENT CORPORATION GP,PRIVATE,"4155225","03","2017","1973",Etobicoke-Lakeshore,8 LOMOND DR,"43.6463454422","-79.5227554263","302948.491","4833822.241"
CENTRAL AIR,YES,"29","463",CONCERT REALTY SERVICES LTD.,PRIVATE,"4171374","10","2017","2013",Spadina-Fort York,570 BAY ST,,,"314153.011","4834834.397"
CENTRAL AIR,YES,"26","283",,PRIVATE,"4155855","03","2017","2012",Etobicoke-Lakeshore,3 SUMMERLAND TER,"43.6431712607","-79.532364963","302151.067","4833473.587"
CENTRAL AIR,NO,"17","327",CAPREIT,PRIVATE,"4240547","08","2017","1976",Eglinton-Lawrence,33 ORCHARD VIEW BLVD,"43.707819465","-79.399390971","312892.413","4840657.216"
CENTRAL AIR,YES,"36","361",RHAPSODY PROPERTY MANAGEMENT SERVICES,PRIVATE,"4907186","18","2021","2020",Willowdale,35 GREENFIELD AVE,"43.763392611","-79.410156052","312018.228","4846829.996"
CENTRAL AIR,NO,"20","185",AZURIA GROUP INCORPORATED,PRIVATE,"4218633","12","2017","1967",Toronto-St. Paul's,77 ST CLAIR AVE E,"43.688457389","-79.390866323","313582.244","4838506.945"
CENTRAL AIR,YES,"5","68",SMITH & TKACZUK HOUSING MANAGEMENT INC.,SOCIAL HOUSING,"4154408","06","2017","1996",York Centre,1206 WILSON AVE,"43.725308739","-79.489424956","305636.238","4842595.268"
CENTRAL AIR,YES,"10","103",VERTICA RESIDENT SERVICES,PRIVATE,"4153379","10","2017","2003",Spadina-Fort York,525 RICHMOND ST W,"43.6469614175","-79.4003305957","312825.032","4833894.922"
CENTRAL AIR,YES,"9","205",RICHMOND COMMUNITY MANAGEMENT SERVICES,SOCIAL HOUSING,"4153389","13","2018","1993",Toronto Centre,110 THE ESPLANADE,"43.6480302618","-79.3723912336","315078.766","4834016.84"
CENTRAL AIR,YES,"20","332",STERLING KARAMAR PROPERTY MANAGEMENT,PRIVATE,"4152866","22","2017","1978",Scarborough-Agincourt,125 BAMBURGH CRCL,"43.813091096","-79.32561213","318813.837","4852362.223"
CENTRAL AIR,YES,"8","76",O'SHANTER DEVELOPMENT COMPANY,PRIVATE,"4153970","08","2017","1974",Eglinton-Lawrence,660 BRIAR HILL AVE,"43.7080949776","-79.4275758961","310621.226","4840684.455"
CENTRAL AIR,YES,"12","154",AYKLER MANAGEMENT,SOCIAL HOUSING,"4153480","13","2017","1994",Toronto Centre,84 CARLTON ST,"43.6622405151","-79.3787026496","314567.32","4835594.787"
CENTRAL AIR,YES,"18","248",,SOCIAL HOUSING,"4156439","05","2017","1993",York South-Weston,33 GABIAN WAY,"43.6931197205","-79.4688639232","307294.354","4839018.662"
CENTRAL AIR,YES,"8","55",PRECISION PROPERTY MANAGEMENT INC,SOCIAL HOUSING,"4155530","03","2017","1992",Etobicoke-Lakeshore,3078 LAKE SHORE BLVD W,"43.5996125678","-79.5123632574","303793.135","4828621.572"
CENTRAL AIR,NO,"21","281",CAPREIT,PRIVATE,"4152859","22","2017","1974",Scarborough-Agincourt,25 BAY MILLS BLVD,"43.780734624","-79.3042139314","320543.991","4848770.329"
CENTRAL AIR,YES,"23","411",PARK PROPERTY MANAGEMENT INC. ,PRIVATE,"4153540","13","2017","2016",Toronto Centre,66 ISABELLA ST,,,"314228.321","4836286.651"
CENTRAL AIR,NO,"25","217",M&R PROPERTY MANAGEMENT,PRIVATE,"4154756","16","2017","1976",Don Valley East,35 WYNFORD HEIGHTS CRES,"43.7263188872","-79.326226049","318784.766","4842721.124"
CENTRAL AIR,YES,"22","310",FAR INVESTMENTS INC.,PRIVATE,"4155302","03","2017","1974",Etobicoke-Lakeshore,52 MABELLE AVE,"43.6464029439","-79.5294506955","302408.377","4833828.787"
CENTRAL AIR,YES,"16","127",GREENWIN CORP.,SOCIAL HOUSING,"4153779","12","2017","1993",Toronto-St. Paul's,78 HOLLY ST,"43.7063503756","-79.3969151981","313092.405","4840493.291"
CENTRAL AIR,YES,"5","177",WOODGREEN COMMUNITY HOUSING INC.,SOCIAL HOUSING,"4153633","14","2017","1993",Toronto-Danforth,1070 QUEEN ST E,"43.6620660934","-79.3367847076","317948.115","4835581.161"
CENTRAL AIR,YES,"5","29",WOODGREEN COMMUNITY HOUSING INC.,SOCIAL HOUSING,"4153644","14","2017","1996",Toronto-Danforth,1119 GERRARD ST E,"43.669541987","-79.333190936","318246.299","4836419.586"
CENTRAL AIR,YES,"7","74",HOMESTEAD LAND HOLDINGS LIMITED,PRIVATE,"4156639","17","2017","2010",Don Valley North,1761 SHEPPARD AVE E,"43.775609539","-79.343036945","317419.83","4848195.294"
CENTRAL AIR,NO,"3","12",SOTAM INVESTMENT GROUP LIMITED,PRIVATE,"4155105","05",,"1954",York South-Weston,"5 GREENBROOK DR

","43.6964928212","-79.4764300653","306684.353","4839393.215"
CENTRAL AIR,YES,"7","138",MAINSTAY HOUSING,SOCIAL HOUSING,"4153712","19","2017","1985",Beaches-East York,550 KINGSTON RD,"43.678459127","-79.301455802","320792.82","4837409.477"
CENTRAL AIR,YES,"8","105",HOMESTEAD LAND HOLDINGS LIMITED,PRIVATE,"4153731","17","2017","2013",Don Valley North,130 PARKWAY FOREST DR,"43.774618023","-79.343572185","317376.948","4848085.058"
CENTRAL AIR,YES,"24","411",QUADREAL PROPERTY GROUP,PRIVATE,"4153744","12","2017","1967",Toronto-St. Paul's,44 JACKES AVE,"43.6857858","-79.391174558","313557.781","4838210.101"
CENTRAL AIR,YES,"12","211",GATEWAY PROPERTY MANAGEMENT CORPORATION,PRIVATE,"4155345","02","2017","1979",Etobicoke Centre,165 LA ROSE AVE,"43.6839794618","-79.5249462549","302773.164","4838003.239"
CENTRAL AIR,YES,"4","87",HOUSELINK COMMUNITY HOMES,SOCIAL HOUSING,"4156726","13","2017","2012",Toronto Centre,40 OAK ST,,,"315649.499","4835505.392"
CENTRAL AIR,YES,"8","97",RICHMOND COMMUNITY MANAGEMENT SERVICES CORP.,SOCIAL HOUSING,"4155088","05","2017","1993",York South-Weston,2480 EGLINTON AVE W,"43.6916984742","-79.4694113226","307250.278","4838860.746"
CENTRAL AIR,NO,"5","79",NINETY WARREN ROAD APARTMENTS,PRIVATE,"4153888","12","2017","1963",Toronto-St. Paul's,90 WARREN RD,"43.6859314457","-79.4069242127","312288.29","4838223.81"
CENTRAL AIR,YES,"4","53",COMMUNITY FIRST DEVELOPMENT INC,SOCIAL HOUSING,"4156140","18","2017","1996",Willowdale,45 CUMMER AVE,"43.787109972","-79.415408659","311592.624","4849464.537"
CENTRAL AIR,NO,"27","306",,PRIVATE,"4155687","18","2017","2003",Willowdale,151 BEECROFT RD,"43.7649957319","-79.4142574762","311688.077","4847006.801"
CENTRAL AIR,NO,"24","148",PRINCESS MANAGEMENT,PRIVATE,"4155691","03","2017","1966",Etobicoke-Lakeshore,39 OLD MILL RD,"43.6501910215","-79.4940291116","305266.017","4834249.154"
CENTRAL AIR,YES,"6","98",THED SALVATION ARMY TORONTO HARBOURLIGHT MINISTRIES,SOCIAL HOUSING,"4156725","13","2017","2009",Toronto Centre,160 JARVIS ST,"43.654672754","-79.373968369","314934.897","4834789.433"
CENTRAL AIR,YES,"31","369",RHAPSODY PROPERTY MANAGEMENT,PRIVATE,"4639099","05","2019","2018",York South-Weston,22 JOHN ST,,,"303360.889","4839990.558"
CENTRAL AIR,NO,"19","225",PARK PROPERTY MANAGEMENT INC. ,PRIVATE,"4155398","02","2017","1974",Etobicoke Centre,340 MILL RD,"43.6398689295","-79.5856147179","297876.852","4833105.909"
CENTRAL AIR,YES,"8","115",DMS PROPERTY MANAGEMENT LTD,PRIVATE,"4789395","03","2020","2019",Etobicoke-Lakeshore,571 PRINCE EDWARD DR N,,,"303978.296","4835359.585"
CENTRAL AIR,YES,"31","333",BENTALLGREENOAK RESIDENTIAL SERVICES,PRIVATE,"5035611","10","2022","2021",Spadina-Fort York,25 ORDNANCE ST,"43.639152469","-79.410262481","312039.38","4833017.009"
CENTRAL AIR,YES,"7","61",AYKLER REAL ESTATE,PRIVATE,"5156165","20","2022","1960",Scarborough Southwest,568 BIRCHMOUNT RD,"43.7127945342","-79.2713034993","323213.731","4841229.257"
CENTRAL AIR,YES,"17","233",PARK PROPERTY MANAGEMENT INC.,PRIVATE,"4155880","02","2017","1974",Etobicoke Centre,63 WIDDICOMBE HILL BLVD,"43.677654113","-79.554781207","300348.867","4837335.591"
CENTRAL AIR,YES,"5","91",PARK PROPERTY MANAGEMENT INC. ,PRIVATE,"4155901","11","2017","2009",University-Rosedale,88 SPADINA RD,"43.6713286257","-79.4059886659","312365.468","4836601.532"
CENTRAL AIR,YES,"11","158",,SOCIAL HOUSING,"4155915","21","2017","1994",Scarborough Centre,2015 LAWRENCE AVE E,"43.7449592405","-79.2949788446","321297.115","4844797.638"
CENTRAL AIR,YES,"4","80",WOODGREEN COMMUNITY HOUSING INC.,SOCIAL HOUSING,"4156036","14","2017","1996",Toronto-Danforth,17 RENWICK CRES,"43.66049693","-79.336536519","317958.359","4835419.239"
CENTRAL AIR,YES,"12","250",GOLDEN-HAUER INVESTMENTS LIMITED,PRIVATE,"4152768","21","2017","1964",Scarborough Centre,123 BELLAMY RD N,"43.7414399001","-79.231653804","326398.571","4844421.149"
CENTRAL AIR,YES,"15","145",GULF PACIFIC PROPERTY MANAGEMENT,PRIVATE,"4156163","12","2017","1967",Toronto-St. Paul's,50 HOLLY ST,"43.7058910324","-79.3966825426","313111.219","4840442.282"
CENTRAL AIR,YES,"9","133",WE DO OUR OWN PROPERTY MANAGEMENT,SOCIAL HOUSING,"4152786","24","2017","1992",Scarborough-Guildwood,3555 KINGSTON RD,"43.7393701329","-79.2153343914","327713.788","4844195.533"
CENTRAL AIR,YES,"19","223",H&R PROPERTY MANAGEMENT,PRIVATE,"4155450","01","2017","1976",Etobicoke North,50 PANORAMA CRT,"43.7481679361","-79.577118319","298573.714","4845136.771"
CENTRAL AIR,YES,"10","240",MYRIAD PROPERTY MANAGEMENT,PRIVATE,"4156561","18","2017","2012",Willowdale,485 PATRICIA AVE,"43.783662468","-79.444994843","309246.757","4849085.015"
CENTRAL AIR,YES,"11","132",SELF MANAGED,SOCIAL HOUSING,"4155081","05","2017","1996",York South-Weston,1500 KEELE ST,"43.6796722353","-79.4718686985","307133.338","4837529.733"
CENTRAL AIR,YES,"21","218",,PRIVATE,"4156628","03","2017","2011",Etobicoke-Lakeshore,7 SUMMERLAND TER,"43.643486952","-79.531938",,
CENTRAL AIR,YES,"9","130",GREENWIN INC.,SOCIAL HOUSING,"4154607","06","2017","1983",York Centre,4266 BATHURST ST,"43.7518743453","-79.438030916","309775.071","4845547.394"
CENTRAL AIR,YES,"19","222",H&R PROPERTY MANAGEMENT,PRIVATE,"4155666","01","2017","1974",Etobicoke North,46 PANORAMA CRT,"43.7482299219","-79.5783390119","298475.409","4845143.751"
CENTRAL AIR,YES,"12","172",STERLING KARAMAR PROPERTY MANAGEMENT,PRIVATE,"4155674","17","2017","1971",Don Valley North,4003 BAYVIEW AVE,"43.8022250044","-79.3928562051","313191.076","4851131.715"
CENTRAL AIR,YES,"12","235",STERLING KARAMAR PROPERTY MANAGEMENT,PRIVATE,"4155675","17","2017","1971",Don Valley North,4005 BAYVIEW AVE,"43.8026375756","-79.3940419226","313187.202","4851155.247"
CENTRAL AIR,YES,"27","301",RHAPSODY PROPERTY MANAGEMENT,PRIVATE,"4697372","17","2019","2019",Don Valley North,55 SMOOTH ROSE CRT,,,"318235.3","4848061.845"
CENTRAL AIR,YES,"36","466",RHAPSODY PROPERTY MANAGEMENT SERVICES,PRIVATE,"4654253","12","2019","2019",Toronto-St. Paul's,15 ROEHAMPTON AVE,"43.707942687","-79.39786072","313015.722","4840671.054"
CENTRAL AIR,YES,"9","61",RHAPSODY PROPERTY MANAGEMENT SERVICES,PRIVATE,"5241001","11",,,,,,,,
CENTRAL AIR,YES,"14","232",GREENWIN INC.,PRIVATE,"4155768","17","2017","2006",Don Valley North,121 PARKWAY FOREST DR,"43.7753760756","-79.3407074848","317568.764","4848085.643"
CENTRAL AIR,YES,"3","16",COMMUNITY FIRST DEVELOPMENTS INC.,SOCIAL HOUSING,"4153624","14","2019","1995",Toronto-Danforth,802 EASTERN AVE,"43.6616379459","-79.3298622257","318506.508","4835534.706"
CENTRAL AIR,NO,"32","163",YONGE PLEASANT HOLDINGS LIMITED,PRIVATE,"4284996","12","2017","1969",Toronto-St. Paul's,60 PLEASANT BLVD,"43.687754027","-79.391524865","313560.944","4838448.416"
CENTRAL AIR,NO,"3","38",,PRIVATE,"4169173","12","2017","1960",Toronto-St. Paul's,1685 EGLINTON AVE W,"43.696203167","-79.446372358","309106.94","4839363.111"
CENTRAL AIR,YES,"22","220",BENTALLGREENOAK (CANADA) LP,PRIVATE,"4171378","11","2017","1973",University-Rosedale,77 GERRARD ST W,,,"314029.142","4835153.24"
CENTRAL AIR,NO,"7","60",CROMWELL MANAGEMENT INC.,PRIVATE,"4153924","12","2017","1965",Toronto-St. Paul's,95 LAWTON BLVD,"43.693346588","-79.3964596744","313130.915","4839048.604"
CENTRAL AIR,YES,"7","95",HOMESTEAD LAND HOLDINGS LIMITED,PRIVATE,"4232788","17","2017","2015",Don Valley North,106 PARKWAY FOREST DR,"43.774094874","-79.341793943","317512.069","4848026.048"
CENTRAL AIR,YES,"30","336",MORGUAR CORP. ,PRIVATE,"4244947","12","2017","2014",Toronto-St. Paul's,320 TWEEDSMUIR AVE,"43.6859132335","-79.4145838905","311670.723","4838221.114"
CENTRAL AIR,YES,"12","119",,SOCIAL HOUSING,"4155158","05","2017","1994",York South-Weston,15 KING ST,"43.7019082741","-79.5198266294","303186.471","4839994.908"
CENTRAL AIR,YES,"22","236",MINTO PROPERTIES INC.,PRIVATE,"4219140","02","2017","2011",Etobicoke Centre,620 MARTIN GROVE RD,,,,
CENTRAL AIR,YES,"26","248",BENTALLGREENOAK ,PRIVATE,"4885483","11","2021","2017",University-Rosedale,2 ST THOMAS ST,"43.668109286","-79.390826378","313588.375","4836246.356"
CENTRAL AIR,YES,"15","138",RICHMOND COMMUNITY MANAGEMENT SERVICES CORP.,SOCIAL HOUSING,"4153457","13","2017","1995",Toronto Centre,80 DUNDAS ST E,"43.6565162898","-79.3781464612","314613.128","4834958.909"
CENTRAL AIR,YES,"9","104",O'SHANTER DEVELOPMENT COMPANY LTD.,PRIVATE,"4153985","08","2017","1965",Eglinton-Lawrence,630 ROSELAWN AVE,"43.706292347","-79.422652894","311017.893","4840485.517"
CENTRAL AIR,YES,"7","164",VINCENTPAUL FAMILY HOMES CORPORATION,SOCIAL HOUSING,"4154045","19","2017","1994",Beaches-East York,10 GOWER ST,"43.702657978","-79.297997207","321065.183","4840098.537"
CENTRAL AIR,YES,"39","349",FITZROVIA REAL ESTATE INC,PRIVATE,"5110249","02","2022","2022",Etobicoke Centre,200 REDPATH AVE,,,"313325.979","4840931.535"
CENTRAL AIR,NO,"3","17",10887609 CANADA INC,PRIVATE,"5258798","13",,,,,,,,
CENTRAL AIR,YES,"42","333",CENTURION PROPERTY ASSOCIATES INC.,PRIVATE,"5199841","03",,"2021",Etobicoke-Lakeshore,5249 DUNDAS ST W,,,"301782.82","4832967.103"
CENTRAL AIR,YES,"10","108",FRED VICTOR CENTRE,SOCIAL HOUSING,"4283407","13","2019",,Toronto Centre,20 PALACE ST,,,"316346.038","4834659.18"
CENTRAL AIR,YES,"21","250",QUADREAL PROPERTY GROUP,PRIVATE,"4153516","11","2017","1977",University-Rosedale,57 CHARLES ST W,"43.667772301","-79.389524395","313693.429","4836209.064"
CENTRAL AIR,YES,"8","111",GREENWIN INC,SOCIAL HOUSING,"4154674","08","2017","1992",Eglinton-Lawrence,262 RIDLEY BLVD,"43.7399850336","-79.423996848","310906.417","4844227.477"
CENTRAL AIR,YES,"13","128",DMS PROPERTY MANAGEMENT LTD.,SOCIAL HOUSING,"4233290","05","2017","1984",York South-Weston,29 SOUTH STATION ST,"43.7009920215","-79.5153630558","303546.182","4839893.047"
CENTRAL AIR,NO,"4","14",MAINSTAY HOUSING,SOCIAL HOUSING,"4153620","14","2017","1989",Toronto-Danforth,970 EASTERN AVE,"43.663675162","-79.321078637","319214.185","4835763.44"
CENTRAL AIR,YES,"10","153",MEDALLION CORPORATION,PRIVATE,"4167765","20","2017","2011",Scarborough Southwest,550 BIRCHMOUNT RD,"43.711367099","-79.270721238","323260.832","4841071.755"
CENTRAL AIR,YES,"7","89",OXFORD PROPERTIES GROUP,PRIVATE,"4155758","08","2017","2005",Eglinton-Lawrence,515 ROSEWELL AVE,"43.7222177359","-79.4134144337","311760.877","4842254.524"
CENTRAL AIR,NO,"7","84",CAPREIT,PRIVATE,"4154733","15","2017","1974",Don Valley West,44 STUBBS DR,"43.7614984852","-79.3630422116","315812.209","4846623.819"
CENTRAL AIR,YES,"21","327",H & R PROPERTY MANAGEMENT LTD,PRIVATE,"4154759","16","2017","1974",Don Valley East,65 WYNFORD HEIGHTS CRES,"43.7283181853","-79.3241417766","318952.217","4842943.589"
CENTRAL AIR,YES,"18","139",QUADREAL RESIDENTIAL PROPERTIES G.P. INC.,PRIVATE,"4156532","02","2017","1975",Etobicoke Centre,53 WIDDICOMBE HILL BLVD,"43.67822939","-79.5525004391","300551.32","4837365.403"
CENTRAL AIR,YES,"5","84",PAR-MED PROPERTY SERVICES INC. ,SOCIAL HOUSING,"4155766","10","2017","2005",Spadina-Fort York,552 ADELAIDE ST W,"43.645573462","-79.402433707","312653.459","4833740.458"
CENTRAL AIR,YES,"4","72",,SOCIAL HOUSING,"4152653","21","2017","1993",Scarborough Centre,963-967 PHARMACY AVE,"43.734818534","-79.300588721","320828.666","4843661.65"
CENTRAL AIR,YES,"14","221",OPERATING ENGINEERS LOCAL 793 NPH INC,SOCIAL HOUSING,"4154806","16","2017","1993",Don Valley East,2020 DON MILLS RD,"43.7627927481","-79.3478372353","317036.265","4846769.736"
CENTRAL AIR,YES,"28","265",OXFORD PROPERTIES GROUP,PRIVATE,"4156567","13","2017","1979",Toronto Centre,1101 BAY ST,"43.6677613551","-79.3884160975","313791.06","4836213.3"
CENTRAL AIR,YES,"23","193",HOLLYBURN PROPERTIES LTD,PRIVATE,"4153207","11","2017","1968",University-Rosedale,20 PRINCE ARTHUR AVE,"43.6698986965","-79.3965574738","313126.188","4836443.565"
CENTRAL AIR,YES,"9","75",HOUSES OPENING TODAY TORONTO INC.,SOCIAL HOUSING,"4153450","13","2017","1992",Toronto Centre,269 JARVIS ST,"43.6581272715","-79.3746753263","314892.829","4835138.263"
CENTRAL AIR,NO,"9","47",BEAUX PROPERTIES MANAGEMENT,PRIVATE,"4153488","13","2017","1979",Toronto Centre,25 WELLESLEY ST E,"43.664890999","-79.383181646","314205.404","4835889.677"
CENTRAL AIR,NO,"31","416",NORTH EDGE PROPERTIES LTD.,PRIVATE,"4155307","03","2017","1974",Etobicoke-Lakeshore,25 MABELLE AVE,"43.6455831031","-79.5265058924","302645.912","4833737.637"
CENTRAL AIR,YES,"22","271",WESTWOOD MANAGEMENT INTERNATIONAL ,PRIVATE,"4155918","01","2017","1970",Etobicoke North,2101 ISLINGTON AVE,"43.7035776497","-79.5492233546","300817.193","4840181.403"
CENTRAL AIR,YES,"7","74",HOMESTEAD LAND HOLDINGS LIMITED,PRIVATE,"4156642","17","2017","2010",Don Valley North,1751 SHEPPARD AVE E,"43.775389788","-79.343955146","317356.948","4848175.294"
CENTRAL AIR,YES,"8","179",KILLAM APARTMENT REIT,PRIVATE,"4156711","10","2017","2013",Spadina-Fort York,100 LOWER OSSINGTON AVE,"43.643820968","-79.418945224","311312.897","4833534.316"
CENTRAL AIR,YES,"13","155",HOMESTEAD LAND HOLDINGS LIMITED,PRIVATE,"4153847","15","2017","2010",Don Valley West,1000 MOUNT PLEASANT RD,"43.7132872773","-79.3923304336","313460.908","4841264.425"
CENTRAL AIR,YES,"5","59",GREENWIN CORP.,SOCIAL HOUSING,"4153300","12","2017","1992",Toronto-St. Paul's,155 KENDAL AVE,"43.676210791","-79.409902417","312049.046","4837144.538"
CENTRAL AIR,YES,"43","369",MEDALLION CORP,PRIVATE,"4333386","13","2019","2018",Toronto Centre,561 SHERBOURNE ST,,,"314838.816","4836396.822"
CENTRAL AIR,YES,"4","61",MAINSTAY HOUSING,SOCIAL HOUSING,"4152948","05","2017","1994",York South-Weston,17 MC CORMACK ST,"43.6763328367","-79.4723721039","307012.089","4837153.622"
CENTRAL AIR,YES,"20","234",H&R PROPERTY MANAGEMENT,PRIVATE,"4155341","02","2017","1972",Etobicoke Centre,39 RICHVIEW RD,"43.684216417","-79.515234861","303556.136","4838029.357"
CENTRAL AIR,YES,"8","145",AYKLER MANAGEMENT,SOCIAL HOUSING,"4156049","24","2017","1994",Scarborough-Guildwood,1680 ELLESMERE RD,"43.772909836","-79.2498185184","324924.994","4847912.75"
CENTRAL AIR,YES,"5","60",WOODGREEN COMMUNITY HOUSING INC.,SOCIAL HOUSING,"4288772","14","2017","1996",Toronto-Danforth,55 PAPE AVE,"43.660465246","-79.337007314","317932.285","4835415.854"
CENTRAL AIR,YES,"10","198",RHAPSODY PROPERTY MANAGEMENT SERVICES,PRIVATE,"5228929","09",,,,,,,,
CENTRAL AIR,YES,"16","259",PRINCESS MANAGEMENT,PRIVATE,"5333758","02",,,,,,,,
CENTRAL AIR,YES,"5","130",YEE HONG CHINESE EVERGREEN NON-PROFIT HOMES ( METRO TORONTO) CORP,SOCIAL HOUSING,"4156136","23","2017","1993",Scarborough North,2319 MCNICOLL AVE,"43.81394308","-79.290219554","321736.414","4852474.97"
CENTRAL AIR,YES,"21","372",OXFORD PROPERTIES GROUP,PRIVATE,"4154624","06","2017","1979",York Centre,300 ANTIBES DR,"43.7812935158","-79.450030785","308806.743","4848815.09"
CENTRAL AIR,YES,"27","420",RHAPSODY PROPERTY MANAGEMENT SERVICES,PRIVATE,"4268538","05","2017","1974",York South-Weston,33 KING ST,,,"303250.926","4840049.806"
CENTRAL AIR,NO,"16","216",PARK PROPERTY MANAGEMENT INC.,PRIVATE,"4257261","13","2017","1979",Toronto Centre,20 CARLTON ST,"43.661630397","-79.3815767552","314335.611","4835526.693"
CENTRAL AIR,NO,"7","102",DAVPART INC.,PRIVATE,"4235524","12","2017","1996",Toronto-St. Paul's,1920 YONGE ST,"43.698770876","-79.397276935","313085.051","4839644.265"
CENTRAL AIR,YES,"35","506",RHAPSODY PROPERTY MANAGEMENT SERVICES - KINGS CLUB RESIDENCES INC. ,PRIVATE,"4890985","10","2021","2019",Spadina-Fort York,1100 KING ST W,"43.640120672","-79.422240833","310980.728","4833129.695"
CENTRAL AIR,YES,"28","267",STERLING KARAMAR,PRIVATE,"4153743","11","2017","1969",University-Rosedale,7 JACKES AVE,"43.684672949","-79.391651748","313519.467","4838086.41"
CENTRAL AIR,YES,"25","547",VERTICA RESIDENT SERVICES,PRIVATE,"4154930","12","2017","1964",Toronto-St. Paul's,400 WALMER RD,"43.685217464","-79.412974276","311783.937","4838152.122"
CENTRAL AIR,YES,"17","233",PARK PROPERTY MANAGEMENT INC. ,PRIVATE,"4155793","02","2017","1973",Etobicoke Centre,120 WIDDICOMBE HILL BLVD,"43.676467695","-79.559152675","300081.204","4837170.804"
CENTRAL AIR,YES,"13","118",WESTDALE PROPERTIES,PRIVATE,"4153887","12","2017","1957",Toronto-St. Paul's,484 AVENUE RD,"43.687301393","-79.402324341","312658.704","4838377.38"
CENTRAL AIR,YES,"24","168",CAPREIT,PRIVATE,"4153342","12","2017","1969",Toronto-St. Paul's,355 ST CLAIR AVE W,"43.683892245","-79.412785124","311815.717","4837997.694"
CENTRAL AIR,NO,"7","34",AKELIUS CANADA LTD,PRIVATE,"4153357","12","2017","1930",Toronto-St. Paul's,49 ST CLAIR AVE W,"43.6873687296","-79.3959379318","313173.803","4838384.509"
CENTRAL AIR,NO,"6","68",TRIVEST DEVELOPMENTS CORPORATION,PRIVATE,"4153359","12","2017","1928",Toronto-St. Paul's,7 EDMUND AVE,"43.682032461","-79.400826171","312780.15","4837792.134"
CENTRAL AIR,NO,"3","32",7774001 CANADA INC.,SOCIAL HOUSING,"4155092","05","2017","2009",York South-Weston,2600 EGLINTON AVE W,"43.690839177","-79.473005863","306960.28","4838766.144"
